STARLINK-36886          
1 68175U 26050J   26173.63211698  .00027751  00000+0  82903-3 0  9991
2 68175  53.1593 137.6450 0000793 284.4044  75.6870 15.34415228 16775
STARLINK-36905          
1 68176U 26050K   26173.60065178  .00016792  00000+0  50689-3 0  9998
2 68176  53.1571 138.1550 0000749  94.5751 265.5337 15.34406016 16767
STARLINK-36668          
1 68177U 26050L   26173.63844048  .00010831  00000+0  33126-3 0  9998
2 68177  53.1575 137.7026 0001503  90.2728 269.8447 15.34396518 16776
STARLINK-36677          
1 68178U 26050M   26173.19300245  .00010825  00000+0  33103-3 0  9994
2 68178  53.1566 139.8756 0000893  98.7272 261.3832 15.34400066 16700
STARLINK-37052          
1 68179U 26050N   26173.63634991  .00016266  00000+0  49127-3 0  9990
2 68179  53.1591 137.6769 0001811  94.3272 265.7937 15.34415340 16774
STARLINK-37035          
1 68180U 26050P   26173.18880060  .00015661  00000+0  47383-3 0  9992
2 68180  53.1589 139.8613 0001138  82.4223 277.6909 15.34390284 16704
STARLINK-37032          
1 68181U 26050Q   26173.59644470  .00019223  00000+0  57845-3 0  9993
2 68181  53.1579 138.1376 0001190  55.9411 304.1705 15.34408901 16766
STARLINK-37082          
1 68182U 26050R   26173.59855111  .00012292  00000+0  37433-3 0  9990
2 68182  53.1558 138.1533 0001174  87.6596 272.4541 15.34399100 16762
STARLINK-37102          
1 68183U 26050S   26173.31696222  .00014955  00000+0  45275-3 0  9998
2 68183  53.1604 139.2413 0001199  84.5889 275.5250 15.34408502 16726
STARLINK-36964          
1 68184U 26050T   26173.20142147  .00014513  00000+0  43982-3 0  9992
2 68184  53.1565 139.9361 0001016  90.5682 269.5437 15.34399626 16702
STARLINK-37061          
1 68185U 26050U   26173.61950295  .00010928  00000+0  33412-3 0  9992
2 68185  53.1595 137.5658 0001538  94.4570 265.6609 15.34398486 16775
STARLINK-37079          
1 68186U 26050V   26173.30435863  .00017169  00000+0  51780-3 0  9990
2 68186  53.1590 139.1702 0001154  86.2418 273.8716 15.34417855 16720
STARLINK-37006          
1 68187U 26050W   26173.28339633  .00019062  00000+0  57381-3 0  9993
2 68187  53.1568 139.7326 0001286 101.9356 258.1791 15.34402520 16717
STARLINK-36305          
1 68189U 26050Y   26173.22456509  .00006817  00000+0  21275-3 0  9998
2 68189  53.1593 140.0790 0001358  87.4919 272.6239 15.34395415 16600
STARLINK-37071          
1 68190U 26050Z   26173.61328096  .00017034  00000+0  51433-3 0  9994
2 68190  53.1553 138.2335 0000708  96.2971 263.8112 15.34387570 16768
STARLINK-37091          
1 68191U 26050AA  26173.32959194  .00017766  00000+0  53580-3 0  9999
2 68191  53.1565 139.3043 0001140  89.5972 270.5161 15.34394345 16720
STARLINK-37098          
1 68192U 26050AB  26173.32117056  .00016771  00000+0  50625-3 0  9995
2 68192  53.1567 139.2563 0001185  93.9713 266.1425 15.34408569 16728
STARLINK-37090          
1 68193U 26050AC  26173.59434291  .00014463  00000+0  43838-3 0  9992
2 68193  53.1563 138.1167 0001292  88.5797 271.5354 15.34397882 16764
STARLINK-37093          
1 68194U 26050AD  26173.19510361  .00005341  00000+0  16915-3 0  9993
2 68194  53.1581 139.8915 0001298 102.3234 257.7914 15.34389163 16706
STARLINK-37058          
1 68195U 26050AE  26173.30222997  .00024435  00000+0  73265-3 0  9998
2 68195  53.1582 139.1368 0001165  96.4795 263.6340 15.34371053 15168
STARLINK-36986          
1 68207U 26053A   26173.22231963  .00019065  00000+0  59122-3 0  9998
2 68207  97.2845  48.2058 0001279  89.1420 270.9970 15.33452668 16239
STARLINK-37009          
1 68208U 26053B   26173.21960244  .00017095  00000+0  53059-3 0  9993
2 68208  97.2856  48.2112 0001210  98.1657 261.9723 15.33448529 16237
STARLINK-36948          
1 68209U 26053C   26173.80418999  .00016774  00000+0  52083-3 0  9993
2 68209  97.2858  48.7939 0001743 100.0675 260.0764 15.33440326 16306
STARLINK-37119          
1 68210U 26053D   26173.40993204  .00015178  00000+0  47147-3 0  9990
2 68210  97.2873  48.4131 0001286  81.2788 278.8601 15.33448162 16261
STARLINK-37120          
1 68211U 26053E   26173.40721303  .00021356  00000+0  66176-3 0  9998
2 68211  97.2882  48.4186 0001720  62.6629 297.4788 15.33454014 16246
STARLINK-37117          
1 68212U 26053F   26173.40448969  .00018943  00000+0  58741-3 0  9990
2 68212  97.2889  48.4228 0000889  58.7993 301.3337 15.33456137 16261
STARLINK-37116          
1 68213U 26053G   26173.59754093  .00018542  00000+0  57509-3 0  9995
2 68213  97.2888  48.6180 0002024  96.5714 263.5759 15.33453320 16295
STARLINK-35854          
1 68214U 26053H   26173.37185557  .00008380  00000+0  26137-3 0  9997
2 68214  97.2850  48.4565 0002288  90.2425 269.9080 15.33473834 16246
STARLINK-36272          
1 68215U 26053J   26173.59210070  .00013303  00000+0  41358-3 0  9994
2 68215  97.2880  48.6194 0001791  93.1103 267.0345 15.33450515 16270
STARLINK-37014          
1 68216U 26053K   26173.85040941  .00007605  00000+0  23775-3 0  9993
2 68216  97.2868  48.8836 0001482 107.2191 252.9214 15.33431351 16335
