OBJECT_NAME,OBJECT_ID,EPOCH,MEAN_MOTION,ECCENTRICITY,INCLINATION,RA_OF_ASC_NODE,ARG_OF_PERICENTER,MEAN_ANOMALY,EPHEMERIS_TYPE,CLASSIFICATION_TYPE,NORAD_CAT_ID,ELEMENT_SET_NO,REV_AT_EPOCH,BSTAR,MEAN_MOTION_DOT,MEAN_MOTION_DDOT
STARLINK-36886,2026-050J,2026-06-22T15:10:14.907072,15.34415228,.00007932,53.1593,137.6450,284.4044,75.6870,0,U,68175,999,1677,.82902933E-3,.27751E-3,0
STARLINK-36905,2026-050K,2026-06-22T14:24:56.313792,15.34406016,.00007492,53.1571,138.1550,94.5751,265.5337,0,U,68176,999,1676,.50688739E-3,.16792E-3,0
STARLINK-36668,2026-050L,2026-06-22T15:19:21.257472,15.34396518,.00015031,53.1575,137.7026,90.2728,269.8447,0,U,68177,999,1677,.33125801E-3,.10831E-3,0
STARLINK-36677,2026-050M,2026-06-22T04:37:55.411680,15.34400066,.00008935,53.1566,139.8756,98.7272,261.3832,0,U,68178,999,1670,.33103312E-3,.10825E-3,0
STARLINK-37052,2026-050N,2026-06-22T15:16:20.632224,15.34415340,.00018111,53.1591,137.6769,94.3272,265.7937,0,U,68179,999,1677,.49127409E-3,.16266E-3,0
STARLINK-37035,2026-050P,2026-06-22T04:31:52.371840,15.34390284,.00011386,53.1589,139.8613,82.4223,277.6909,0,U,68180,999,1670,.47382595E-3,.15661E-3,0
STARLINK-37032,2026-050Q,2026-06-22T14:18:52.822080,15.34408901,.00011908,53.1579,138.1376,55.9411,304.1705,0,U,68181,999,1676,.57845401E-3,.19223E-3,0
STARLINK-37082,2026-050R,2026-06-22T14:21:54.815904,15.34399100,.00011747,53.1558,138.1533,87.6596,272.4541,0,U,68182,999,1676,.3743336E-3,.12292E-3,0
STARLINK-37102,2026-050S,2026-06-22T07:36:25.535808,15.34408502,.00011997,53.1604,139.2413,84.5889,275.5250,0,U,68183,999,1672,.45275081E-3,.14955E-3,0
STARLINK-36964,2026-050T,2026-06-22T04:50:02.815008,15.34399626,.00010165,53.1565,139.9361,90.5682,269.5437,0,U,68184,999,1670,.43982085E-3,.14513E-3,0
STARLINK-37061,2026-050U,2026-06-22T14:52:05.054880,15.34398486,.00015387,53.1595,137.5658,94.4570,265.6609,0,U,68185,999,1677,.33412159E-3,.10928E-3,0
STARLINK-37079,2026-050V,2026-06-22T07:18:16.585632,15.34417855,.00011541,53.1590,139.1702,86.2418,273.8716,0,U,68186,999,1672,.51780443E-3,.17169E-3,0
STARLINK-37006,2026-050W,2026-06-22T06:48:05.442912,15.34402520,.00012868,53.1568,139.7326,101.9356,258.1791,0,U,68187,999,1671,.57380745E-3,.19062E-3,0
STARLINK-36305,2026-050Y,2026-06-22T05:23:22.423776,15.34395415,.00013581,53.1593,140.0790,87.4919,272.6239,0,U,68189,999,1660,.21274962E-3,.6817E-4,0
STARLINK-37071,2026-050Z,2026-06-22T14:43:07.474944,15.34387570,.00007081,53.1553,138.2335,96.2971,263.8112,0,U,68190,999,1676,.51433034E-3,.17034E-3,0
STARLINK-37091,2026-050AA,2026-06-22T07:54:36.743616,15.34394345,.00011405,53.1565,139.3043,89.5972,270.5161,0,U,68191,999,1672,.53579536E-3,.17766E-3,0
STARLINK-37098,2026-050AB,2026-06-22T07:42:29.136384,15.34408569,.00011851,53.1567,139.2563,93.9713,266.1425,0,U,68192,999,1672,.50624721E-3,.16771E-3,0
STARLINK-37090,2026-050AC,2026-06-22T14:15:51.227424,15.34397882,.00012927,53.1563,138.1167,88.5797,271.5354,0,U,68193,999,1676,.43837672E-3,.14463E-3,0
STARLINK-37093,2026-050AD,2026-06-22T04:40:56.951904,15.34389163,.0001298,53.1581,139.8915,102.3234,257.7914,0,U,68194,999,1670,.16915275E-3,.5341E-4,0
STARLINK-37058,2026-050AE,2026-06-22T07:15:12.669408,15.34371053,.00011654,53.1582,139.1368,96.4795,263.6340,0,U,68195,999,1516,.73264507E-3,.24435E-3,0
STARLINK-36986,2026-053A,2026-06-22T05:20:08.416032,15.33452668,.00012792,97.2845,48.2058,89.1420,270.9970,0,U,68207,999,1623,.59122335E-3,.19065E-3,0
STARLINK-37009,2026-053B,2026-06-22T05:16:13.650816,15.33448529,.00012104,97.2856,48.2112,98.1657,261.9723,0,U,68208,999,1623,.53059019E-3,.17095E-3,0
STARLINK-36948,2026-053C,2026-06-22T19:18:02.015136,15.33440326,.00017438,97.2858,48.7939,100.0675,260.0764,0,U,68209,999,1630,.52082665E-3,.16774E-3,0
STARLINK-37119,2026-053D,2026-06-22T09:50:18.128256,15.33448162,.00012866,97.2873,48.4131,81.2788,278.8601,0,U,68210,999,1626,.47147392E-3,.15178E-3,0
STARLINK-37120,2026-053E,2026-06-22T09:46:23.205792,15.33454014,.00017206,97.2882,48.4186,62.6629,297.4788,0,U,68211,999,1624,.66176376E-3,.21356E-3,0
STARLINK-37117,2026-053F,2026-06-22T09:42:27.909216,15.33456137,.00008893,97.2889,48.4228,58.7993,301.3337,0,U,68212,999,1626,.58741274E-3,.18943E-3,0
STARLINK-37116,2026-053G,2026-06-22T14:20:27.536352,15.33453320,.00020243,97.2888,48.6180,96.5714,263.5759,0,U,68213,999,1629,.57509343E-3,.18542E-3,0
STARLINK-35854,2026-053H,2026-06-22T08:55:28.321248,15.33473834,.00022884,97.2850,48.4565,90.2425,269.9080,0,U,68214,999,1624,.26137063E-3,.838E-4,0
STARLINK-36272,2026-053J,2026-06-22T14:12:37.500480,15.33450515,.00017911,97.2880,48.6194,93.1103,267.0345,0,U,68215,999,1627,.41358177E-3,.13303E-3,0
STARLINK-37014,2026-053K,2026-06-22T20:24:35.373024,15.33431351,.00014823,97.2868,48.8836,107.2191,252.9214,0,U,68216,999,1633,.23775054E-3,.7605E-4,0
